{"type": "FeatureCollection", "features": [ {"type": "Feature", "properties": {"norad_id": 66775, "name": "TRANSPORTER-15 DP", "group": "last-30-days", "lat": -66.60937451349845, "lon": -130.98568391032165, "alt_km": 519.3208503717451, "timestamp": "2025-12-20T22:39:09.407476+00:00", "meta": {"OBJECT_NAME": "TRANSPORTER-15 DP", "OBJECT_ID": "2025-276DP", "EPOCH": "2025-12-20T10:29:43.496736", "MEAN_MOTION": 15.18613081, "ECCENTRICITY": 0.00029675, "INCLINATION": 97.4351, "RA_OF_ASC_NODE": 66.0888, "ARG_OF_PERICENTER": 71.6267, "MEAN_ANOMALY": 288.529, "EPHEMERIS_TYPE": 0, "CLASSIFICATION_TYPE": "U", "NORAD_CAT_ID": 66775, "ELEMENT_SET_NO": 999, "REV_AT_EPOCH": 329, "BSTAR": 0.00035167349, "MEAN_MOTION_DOT": 7.212e-05, "MEAN_MOTION_DDOT": 0}, "tle": {"line1": "1 66775U 25276DP  25354.43730899  .00007212  00000+0  35167-3 0  9991", "line2": "2 66775  97.4351  66.0888 0002967  71.6267 288.5290 15.18613081  3293"}}, "geometry": {"type": "Point", "coordinates": [-130.98568391032165, -66.60937451349845]}}, {"type": "Feature", "properties": {"norad_id": 66776, "name": "TRANSPORTER-15 DQ", "group": "last-30-days", "lat": -68.18892430397162, "lon": -132.4584069971662, "alt_km": 519.0946290020865, "timestamp": "2025-12-20T22:39:09.407487+00:00", "meta": {"OBJECT_NAME": "TRANSPORTER-15 DQ", "OBJECT_ID": "2025-276DQ", "EPOCH": "2025-12-20T04:09:46.422144", "MEAN_MOTION": 15.18645533, "ECCENTRICITY": 0.00028932, "INCLINATION": 97.4391, "RA_OF_ASC_NODE": 65.8398, "ARG_OF_PERICENTER": 89.3978, "MEAN_ANOMALY": 270.7587, "EPHEMERIS_TYPE": 0, "CLASSIFICATION_TYPE": "U", "NORAD_CAT_ID": 66776, "ELEMENT_SET_NO": 999, "REV_AT_EPOCH": 325, "BSTAR": 0.00028368482, "MEAN_MOTION_DOT": 5.809e-05, "MEAN_MOTION_DDOT": 0}, "tle": {"line1": "1 66776U 25276DQ  25354.17345396  .00005809  00000+0  28368-3 0  9992", "line2": "2 66776  97.4391  65.8398 0002893  89.3978 270.7587 15.18645533  3259"}}, "geometry": {"type": "Point", "coordinates": [-132.4584069971662, -68.18892430397162]}}, {"type": "Feature", "properties": {"norad_id": 66777, "name": "TRANSPORTER-15 DR", "group": "last-30-days", "lat": -77.93163708985301, "lon": -151.09825171533828, "alt_km": 518.4923389017731, "timestamp": "2025-12-20T22:39:09.407497+00:00", "meta": {"OBJECT_NAME": "TRANSPORTER-15 DR", "OBJECT_ID": "2025-276DR", "EPOCH": "2025-12-20T04:07:00.898752", "MEAN_MOTION": 15.18855004, "ECCENTRICITY": 0.00033399, "INCLINATION": 97.4479, "RA_OF_ASC_NODE": 65.865, "ARG_OF_PERICENTER": 118.61, "MEAN_ANOMALY": 241.5471, "EPHEMERIS_TYPE": 0, "CLASSIFICATION_TYPE": "U", "NORAD_CAT_ID": 66777, "ELEMENT_SET_NO": 999, "REV_AT_EPOCH": 325, "BSTAR": 0.00036690146, "MEAN_MOTION_DOT": 7.581e-05, "MEAN_MOTION_DDOT": 0}, "tle": {"line1": "1 66777U 25276DR  25354.17153818  .00007581  00000+0  36690-3 0  9995", "line2": "2 66777  97.4479  65.8650 0003339 118.6100 241.5471 15.18855004  3251"}}, "geometry": {"type": "Point", "coordinates": [-151.09825171533828, -77.93163708985301]}}, {"type": "Feature", "properties": {"norad_id": 66791, "name": "STARLINK-35867", "group": "last-30-days", "lat": 7.502792054630934, "lon": 14.222506660477412, "alt_km": 384.81461287116235, "timestamp": "2025-12-20T22:39:09.407507+00:00", "meta": {"OBJECT_NAME": "STARLINK-35867", "OBJECT_ID": "2025-278A", "EPOCH": "2025-12-20T14:00:03.000384", "MEAN_MOTION": 15.6206598, "ECCENTRICITY": 0.00015617, "INCLINATION": 42.9989, "RA_OF_ASC_NODE": 204.4912, "ARG_OF_PERICENTER": 251.9854, "MEAN_ANOMALY": 48.2615, "EPHEMERIS_TYPE": 0, "CLASSIFICATION_TYPE": "U", "NORAD_CAT_ID": 66791, "ELEMENT_SET_NO": 999, "REV_AT_EPOCH": 421, "BSTAR": -0.02434018, "MEAN_MOTION_DOT": -0.01933135, "MEAN_MOTION_DDOT": 0}, "tle": {"line1": "1 66791U 25278A   25354.58336806 -.01933135  00000+0 -24340-1 0  9991", "line2": "2 66791  42.9989 204.4912 0001561 251.9854  48.2615 15.62065980  4216"}}, "geometry": {"type": "Point", "coordinates": [14.222506660477412, 7.502792054630934]}}, {"type": "Feature", "properties": {"norad_id": 66792, "name": "STARLINK-35990", "group": "last-30-days", "lat": 6.205284357234315, "lon": 15.643057006840243, "alt_km": 384.92849617300817, "timestamp": "2025-12-20T22:39:09.407517+00:00", "meta": {"OBJECT_NAME": "STARLINK-35990", "OBJECT_ID": "2025-278B", "EPOCH": "2025-12-20T14:00:03.000384", "MEAN_MOTION": 15.62060566, "ECCENTRICITY": 0.0001549, "INCLINATION": 42.9991, "RA_OF_ASC_NODE": 204.4871, "ARG_OF_PERICENTER": 250.7818, "MEAN_ANOMALY": 51.3863, "EPHEMERIS_TYPE": 0, "CLASSIFICATION_TYPE": "U", "NORAD_CAT_ID": 66792, "ELEMENT_SET_NO": 999, "REV_AT_EPOCH": 421, "BSTAR": -0.024240192, "MEAN_MOTION_DOT": -0.01925759, "MEAN_MOTION_DDOT": 0}, "tle": {"line1": "1 66792U 25278B   25354.58336806 -.01925759  00000+0 -24240-1 0  9994", "line2": "2 66792  42.9991 204.4871 0001549 250.7818  51.3863 15.62060566  4212"}}, "geometry": {"type": "Point", "coordinates": [15.643057006840243, 6.205284357234315]}}, {"type": "Feature", "properties": {"norad_id": 66793, "name": "STARLINK-36051", "group": "last-30-days", "lat": 3.60168426668199, "lon": 18.4610739835506, "alt_km": 385.216813017234, "timestamp": "2025-12-20T22:39:09.407527+00:00", "meta": {"OBJECT_NAME": "STARLINK-36051", "OBJECT_ID": "2025-278C", "EPOCH": "2025-12-20T14:00:03.000384", "MEAN_MOTION": 15.62064444, "ECCENTRICITY": 0.00015347, "INCLINATION": 42.9992, "RA_OF_ASC_NODE": 204.4776, "ARG_OF_PERICENTER": 250.4231, "MEAN_ANOMALY": 55.5794, "EPHEMERIS_TYPE": 0, "CLASSIFICATION_TYPE": "U", "NORAD_CAT_ID": 66793, "ELEMENT_SET_NO": 999, "REV_AT_EPOCH": 412, "BSTAR": -0.024364919, "MEAN_MOTION_DOT": -0.01934744, "MEAN_MOTION_DDOT": 0}, "tle": {"line1": "1 66793U 25278C   25354.58336806 -.01934744  00000+0 -24365-1 0  9997", "line2": "2 66793  42.9992 204.4776 0001534 250.4231  55.5794 15.62064444  4126"}}, "geometry": {"type": "Point", "coordinates": [18.4610739835506, 3.60168426668199]}}, {"type": "Feature", "properties": {"norad_id": 66794, "name": "STARLINK-36062", "group": "last-30-days", "lat": 4.904960466865903, "lon": 17.054191288823628, "alt_km": 385.1256786662252, "timestamp": "2025-12-20T22:39:09.407536+00:00", "meta": {"OBJECT_NAME": "STARLINK-36062", "OBJECT_ID": "2025-278D", "EPOCH": "2025-12-20T14:00:03.000384", "MEAN_MOTION": 15.62066591, "ECCENTRICITY": 0.00014912, "INCLINATION": 42.9992, "RA_OF_ASC_NODE": 204.4817, "ARG_OF_PERICENTER": 252.5475, "MEAN_ANOMALY": 51.5352, "EPHEMERIS_TYPE": 0, "CLASSIFICATION_TYPE": "U", "NORAD_CAT_ID": 66794, "ELEMENT_SET_NO": 999, "REV_AT_EPOCH": 421, "BSTAR": -0.024377245, "MEAN_MOTION_DOT": -0.0193572, "MEAN_MOTION_DDOT": 0}, "tle": {"line1": "1 66794U 25278D   25354.58336806 -.01935720  00000+0 -24377-1 0  9996", "line2": "2 66794  42.9992 204.4817 0001491 252.5475  51.5352 15.62066591  4219"}}, "geometry": {"type": "Point", "coordinates": [17.054191288823628, 4.904960466865903]}}, {"type": "Feature", "properties": {"norad_id": 66795, "name": "STARLINK-36047", "group": "last-30-days", "lat": 2.2970374539092346, "lon": 19.862531268418447, "alt_km": 385.3430574891954, "timestamp": "2025-12-20T22:39:09.407545+00:00", "meta": {"OBJECT_NAME": "STARLINK-36047", "OBJECT_ID": "2025-278E", "EPOCH": "2025-12-20T14:00:03.000384", "MEAN_MOTION": 15.62066144, "ECCENTRICITY": 0.00015291, "INCLINATION": 42.9991, "RA_OF_ASC_NODE": 204.473, "ARG_OF_PERICENTER": 250.2151, "MEAN_ANOMALY": 57.7005, "EPHEMERIS_TYPE": 0, "CLASSIFICATION_TYPE": "U", "NORAD_CAT_ID": 66795, "ELEMENT_SET_NO": 999, "REV_AT_EPOCH": 412, "BSTAR": -0.024345933, "MEAN_MOTION_DOT": -0.01933526, "MEAN_MOTION_DDOT": 0}, "tle": {"line1": "1 66795U 25278E   25354.58336806 -.01933526  00000+0 -24346-1 0  9995", "line2": "2 66795  42.9991 204.4730 0001529 250.2151  57.7005 15.62066144  4128"}}, "geometry": {"type": "Point", "coordinates": [19.862531268418447, 2.2970374539092346]}}, {"type": "Feature", "properties": {"norad_id": 66796, "name": "STARLINK-35964", "group": "last-30-days", "lat": 41.90603666744811, "lon": -53.74983618680079, "alt_km": 321.81168631717355, "timestamp": "2025-12-20T22:39:09.407554+00:00", "meta": {"OBJECT_NAME": "STARLINK-35964", "OBJECT_ID": "2025-278F", "EPOCH": "2025-12-20T13:07:43.320288", "MEAN_MOTION": 15.80935455, "ECCENTRICITY": 0.00023294, "INCLINATION": 42.9913, "RA_OF_ASC_NODE": 203.1277, "ARG_OF_PERICENTER": 249.4477, "MEAN_ANOMALY": 110.6144, "EPHEMERIS_TYPE": 0, "CLASSIFICATION_TYPE": "U", "NORAD_CAT_ID": 66796, "ELEMENT_SET_NO": 999, "REV_AT_EPOCH": 308, "BSTAR": 0.0014213593, "MEAN_MOTION_DOT": 0.00294017, "MEAN_MOTION_DDOT": 0}, "tle": {"line1": "1 66796U 25278F   25354.54702917  .00294017  00000+0  14214-2 0  9998", "line2": "2 66796  42.9913 203.1277 0002329 249.4477 110.6144 15.80935455  3082"}}, "geometry": {"type": "Point", "coordinates": [-53.74983618680079, 41.90603666744811]}}, {"type": "Feature", "properties": {"norad_id": 66797, "name": "STARLINK-36099", "group": "last-30-days", "lat": -0.3167083308845775, "lon": 22.660039965956404, "alt_km": 385.69429757783655, "timestamp": "2025-12-20T22:39:09.407568+00:00", "meta": {"OBJECT_NAME": "STARLINK-36099", "OBJECT_ID": "2025-278G", "EPOCH": "2025-12-20T14:00:03.000384", "MEAN_MOTION": 15.62064407, "ECCENTRICITY": 0.00015339, "INCLINATION": 42.9992, "RA_OF_ASC_NODE": 204.4634, "ARG_OF_PERICENTER": 253.7324, "MEAN_ANOMALY": 58.0199, "EPHEMERIS_TYPE": 0, "CLASSIFICATION_TYPE": "U", "NORAD_CAT_ID": 66797, "ELEMENT_SET_NO": 999, "REV_AT_EPOCH": 427, "BSTAR": -0.024345341, "MEAN_MOTION_DOT": -0.01933371, "MEAN_MOTION_DDOT": 0}, "tle": {"line1": "1 66797U 25278G   25354.58336806 -.01933371  00000+0 -24345-1 0  9994", "line2": "2 66797  42.9992 204.4634 0001533 253.7324  58.0199 15.62064407  4273"}}, "geometry": {"type": "Point", "coordinates": [22.660039965956404, -0.3167083308845775]}}]}